ONEWEB-0228             
1 48780U 21045P   23246.50265950  .00000131  00000+0  31378-3 0  9997
2 48780  87.8954 101.8340 0001817  88.3130 271.8208 13.15547414110529
